ORBCOMM FM05            
1 25117U 97084F   24264.86765962  .00004101  00000+0  12365-2 0  9995
2 25117  45.0142 219.2746 0003830 319.9050  40.1518 14.43725853401653
ORBCOMM FM06            
1 25118U 97084G   24264.96666948  .00004411  00000+0  13234-2 0  9991
2 25118  45.0135 218.8731 0003067 330.5742  78.7446 14.43844349402586
ORBCOMM FM07            
1 25119U 97084H   24264.95741350  .00003851  00000+0  11636-2 0  9993
2 25119  45.0131 219.5483 0004387 312.3809  47.6669 14.43731035402571
ORBCOMM FM03            
1 25158U 98007B   24264.75949860  .00002094  00000+0  80313-3 0  9993
2 25158 107.9722 302.6581 0046402 357.1702   2.9169 14.32923124385427
ORBCOMM FM04            
1 25159U 98007C   24264.58355553  .00002240  00000+0  85322-3 0  9993
2 25159 107.9705 305.3287 0041984 354.7462   5.3232 14.33192959385577
ORBCOMM FM17            
1 25413U 98046A   24264.89070569  .00002383  00000+0  90013-3 0  9995
2 25413  44.9936  87.4437 0001640 282.0938  77.9725 14.33759879364509
ORBCOMM FM18            
1 25414U 98046B   24264.75873401  .00003164  00000+0  11101-2 0  9995
2 25414  44.9946  12.2304 0003182 334.2660  25.8029 14.36748360365477
ORBCOMM FM19            
1 25415U 98046C   24264.77130473  .00002987  00000+0  10543-2 0  9994
2 25415  44.9954  13.7635 0002483 312.8216 207.4129 14.36578340365436
